start=new Date('2021-08-27T00:00:00.000Z').valueOf();
sats=[{"SEMIMAJOR_AXIS":"6732.430","LAUNCH_DATE":"2021-05-09","TLE_LINE1":"1 48429U 21040B   21238.91670139 -.00854263  00000-0 -72004-2 0  9991","MEAN_ELEMENT_THEORY":"SGP4","PERIOD":"91.626","EPHEMERIS_TYPE":"0","APOAPSIS":"355.669","RCS_SIZE":"LARGE","REF_FRAME":"TEME","CLASSIFICATION_TYPE":"U","TLE_LINE2":"2 48429  53.0460  38.1218 0002041  18.5422   6.9977 15.71610654  3680","NORAD_CAT_ID":"48429","MEAN_MOTION_DDOT":"0.0000000000000","ELEMENT_SET_NO":"999","FILE":"3103480","SITE":"AFETR","GP_ID":"183498798","MEAN_ANOMALY":"6.9977","ARG_OF_PERICENTER":"18.5422","ECCENTRICITY":"0.00020410","DECAY_DATE":null,"OBJECT_TYPE":"PAYLOAD","EPOCH":"2021-08-26T22:00:03.000096","MEAN_MOTION_DOT":"-0.00854263","RA_OF_ASC_NODE":"38.1218","CENTER_NAME":"EARTH","PERIAPSIS":"352.921","MEAN_MOTION":"15.71610654","COUNTRY_CODE":"US","OBJECT_NAME":"STARLINK-2749","INCLINATION":"53.0460","BSTAR":"-0.00720040000000","REV_AT_EPOCH":"368","OBJECT_ID":"2021-040B","TIME_SYSTEM":"UTC"},{"CENTER_NAME":"EARTH","PERIAPSIS":"351.287","MEAN_MOTION":"15.72152291","RA_OF_ASC_NODE":"38.1173","BSTAR":"-0.00661130000000","REV_AT_EPOCH":"368","TIME_SYSTEM":"UTC","OBJECT_ID":"2021-040C","COUNTRY_CODE":"US","INCLINATION":"53.0461","OBJECT_NAME":"STARLINK-2729","EPHEMERIS_TYPE":"0","APOAPSIS":"354.211","PERIOD":"91.594","CLASSIFICATION_TYPE":"U","TLE_LINE2":"2 48430  53.0461  38.1173 0002172  18.4533   9.2477 15.72152291  3680","RCS_SIZE":"LARGE","REF_FRAME":"TEME","SEMIMAJOR_AXIS":"6730.884","LAUNCH_DATE":"2021-05-09","TLE_LINE1":"1 48430U 21040C   21238.91670139 -.00807370  00000-0 -66113-2 0  9994","MEAN_ELEMENT_THEORY":"SGP4","OBJECT_TYPE":"PAYLOAD","DECAY_DATE":null,"MEAN_MOTION_DOT":"-0.00807370","EPOCH":"2021-08-26T22:00:03.000096","ELEMENT_SET_NO":"999","MEAN_MOTION_DDOT":"0.0000000000000","NORAD_CAT_ID":"48430","ARG_OF_PERICENTER":"18.4533","ECCENTRICITY":"0.00021720","FILE":"3103480","GP_ID":"183498644","MEAN_ANOMALY":"9.2477","SITE":"AFETR"},{"OBJECT_NAME":"STARLINK-2700","INCLINATION":"53.0492","COUNTRY_CODE":"US","OBJECT_ID":"2021-040D","TIME_SYSTEM":"UTC","BSTAR":"0.00034933000000","REV_AT_EPOCH":"368","RA_OF_ASC_NODE":"38.1106","MEAN_MOTION":"15.73138082","CENTER_NAME":"EARTH","PERIAPSIS":"348.159","FILE":"3103480","GP_ID":"183498551","MEAN_ANOMALY":"11.7968","SITE":"AFETR","ARG_OF_PERICENTER":"17.9118","ECCENTRICITY":"0.00026420","NORAD_CAT_ID":"48431","ELEMENT_SET_NO":"999","MEAN_MOTION_DDOT":"0.0000000000000","EPOCH":"2021-08-26T22:00:03.000096","MEAN_MOTION_DOT":"0.00048573","DECAY_DATE":null,"OBJECT_TYPE":"PAYLOAD","MEAN_ELEMENT_THEORY":"SGP4","TLE_LINE1":"1 48431U 21040D   21238.91670139  .00048573  00000-0  34933-3 0  9991","SEMIMAJOR_AXIS":"6728.072","LAUNCH_DATE":"2021-05-09","RCS_SIZE":"LARGE","REF_FRAME":"TEME","CLASSIFICATION_TYPE":"U","TLE_LINE2":"2 48431  53.0492  38.1106 0002642  17.9118  11.7968 15.73138082  3682","PERIOD":"91.537","EPHEMERIS_TYPE":"0","APOAPSIS":"351.714"},{"LAUNCH_DATE":"2021-05-09","SEMIMAJOR_AXIS":"6728.078","TLE_LINE1":"1 48432U 21040E   21238.91670139  .00050542  00000-0  36326-3 0  9999","MEAN_ELEMENT_THEORY":"SGP4","PERIOD":"91.537","APOAPSIS":"351.713","EPHEMERIS_TYPE":"0","REF_FRAME":"TEME","RCS_SIZE":"LARGE","TLE_LINE2":"2 48432  53.0495  38.1110 0002631  14.8803  15.4684 15.73135928  3688","CLASSIFICATION_TYPE":"U","NORAD_CAT_ID":"48432","ELEMENT_SET_NO":"999","MEAN_MOTION_DDOT":"0.0000000000000","GP_ID":"183499078","MEAN_ANOMALY":"15.4684","SITE":"AFETR","FILE":"3103480","ECCENTRICITY":"0.00026310","ARG_OF_PERICENTER":"14.8803","DECAY_DATE":null,"OBJECT_TYPE":"PAYLOAD","EPOCH":"2021-08-26T22:00:03.000096","MEAN_MOTION_DOT":"0.00050542","RA_OF_ASC_NODE":"38.1110","PERIAPSIS":"348.173","CENTER_NAME":"EARTH","MEAN_MOTION":"15.73135928","COUNTRY_CODE":"US","OBJECT_NAME":"STARLINK-2680","INCLINATION":"53.0495","REV_AT_EPOCH":"368","BSTAR":"0.00036326000000","OBJECT_ID":"2021-040E","TIME_SYSTEM":"UTC"},{"COUNTRY_CODE":"US","OBJECT_NAME":"STARLINK-2699","INCLINATION":"53.0494","BSTAR":"0.00056985000000","REV_AT_EPOCH":"368","OBJECT_ID":"2021-040F","TIME_SYSTEM":"UTC","RA_OF_ASC_NODE":"38.1091","CENTER_NAME":"EARTH","PERIAPSIS":"348.107","MEAN_MOTION":"15.73141035","NORAD_CAT_ID":"48433","ELEMENT_SET_NO":"999","MEAN_MOTION_DDOT":"0.0000000000000","FILE":"3103480","SITE":"AFETR","GP_ID":"183498458","MEAN_ANOMALY":"10.8207","ARG_OF_PERICENTER":"20.1314","ECCENTRICITY":"0.00027070","DECAY_DATE":null,"OBJECT_TYPE":"PAYLOAD","EPOCH":"2021-08-26T22:00:03.000096","MEAN_MOTION_DOT":"0.00079939","SEMIMAJOR_AXIS":"6728.063","LAUNCH_DATE":"2021-05-09","TLE_LINE1":"1 48433U 21040F   21238.91670139  .00079939  00000-0  56985-3 0  9994","MEAN_ELEMENT_THEORY":"SGP4","PERIOD":"91.537","EPHEMERIS_TYPE":"0","APOAPSIS":"351.750","RCS_SIZE":"LARGE","REF_FRAME":"TEME","CLASSIFICATION_TYPE":"U","TLE_LINE2":"2 48433  53.0494  38.1091 0002707  20.1314  10.8207 15.73141035  3683"},{"DECAY_DATE":null,"OBJECT_TYPE":"PAYLOAD","EPOCH":"2021-08-26T22:00:03.000096","MEAN_MOTION_DOT":"-0.00807047","NORAD_CAT_ID":"48434","ELEMENT_SET_NO":"999","MEAN_MOTION_DDOT":"0.0000000000000","FILE":"3103480","GP_ID":"183498985","MEAN_ANOMALY":"11.8600","SITE":"AFETR","ARG_OF_PERICENTER":"18.2637","ECCENTRICITY":"0.00021600","PERIOD":"91.597","EPHEMERIS_TYPE":"0","APOAPSIS":"354.345","RCS_SIZE":"LARGE","REF_FRAME":"TEME","CLASSIFICATION_TYPE":"U","TLE_LINE2":"2 48434  53.0463  38.1138 0002160  18.2637  11.8600 15.72102561  3689","SEMIMAJOR_AXIS":"6731.026","LAUNCH_DATE":"2021-05-09","MEAN_ELEMENT_THEORY":"SGP4","TLE_LINE1":"1 48434U 21040G   21238.91670139 -.00807047  00000-0 -66225-2 0  9993","BSTAR":"-0.00662250000000","REV_AT_EPOCH":"368","OBJECT_ID":"2021-040G","TIME_SYSTEM":"UTC","COUNTRY_CODE":"US","OBJECT_NAME":"STARLINK-2692","INCLINATION":"53.0463","CENTER_NAME":"EARTH","PERIAPSIS":"351.437","MEAN_MOTION":"15.72102561","RA_OF_ASC_NODE":"38.1138"},{"SEMIMAJOR_AXIS":"6819.210","LAUNCH_DATE":"2021-05-09","MEAN_ELEMENT_THEORY":"SGP4","TLE_LINE1":"1 48435U 21040H   21238.91670139 -.01086674  00000-0 -27621-1 0  9996","EPHEMERIS_TYPE":"0","APOAPSIS":"441.871","PERIOD":"93.403","TLE_LINE2":"2 48435  53.0451  39.5316 0001168  61.8770 288.7477 15.41706454  3683","CLASSIFICATION_TYPE":"U","RCS_SIZE":"LARGE","REF_FRAME":"TEME","ELEMENT_SET_NO":"999","MEAN_MOTION_DDOT":"0.0000000000000","NORAD_CAT_ID":"48435","ARG_OF_PERICENTER":"61.8770","ECCENTRICITY":"0.00011680","FILE":"3103480","GP_ID":"183498892","MEAN_ANOMALY":"288.7477","SITE":"AFETR","OBJECT_TYPE":"PAYLOAD","DECAY_DATE":null,"MEAN_MOTION_DOT":"-0.01086674","EPOCH":"2021-08-26T22:00:03.000096","RA_OF_ASC_NODE":"39.5316","CENTER_NAME":"EARTH","PERIAPSIS":"440.278","MEAN_MOTION":"15.41706454","COUNTRY_CODE":"US","INCLINATION":"53.0451","OBJECT_NAME":"STARLINK-2633","BSTAR":"-0.02762100000000","REV_AT_EPOCH":"368","TIME_SYSTEM":"UTC","OBJECT_ID":"2021-040H"},{"OBJECT_ID":"2021-040J","TIME_SYSTEM":"UTC","BSTAR":"0.00279590000000","REV_AT_EPOCH":"358","OBJECT_NAME":"STARLINK-2639","INCLINATION":"53.0536","COUNTRY_CODE":"US","MEAN_MOTION":"15.06380441","CENTER_NAME":"EARTH","PERIAPSIS":"546.126","RA_OF_ASC_NODE":"54.6701","EPOCH":"2021-08-26T22:00:03.000096","MEAN_MOTION_DOT":"0.00041588","DECAY_DATE":null,"OBJECT_TYPE":"PAYLOAD","FILE":"3103480","SITE":"AFETR","GP_ID":"183498738","MEAN_ANOMALY":"144.1984","ARG_OF_PERICENTER":"94.4098","ECCENTRICITY":"0.00016570","NORAD_CAT_ID":"48436","ELEMENT_SET_NO":"999","MEAN_MOTION_DDOT":"0.0000000000000","RCS_SIZE":"LARGE","REF_FRAME":"TEME","TLE_LINE2":"2 48436  53.0536  54.6701 0001657  94.4098 144.1984 15.06380441  3584","CLASSIFICATION_TYPE":"U","PERIOD":"95.593","EPHEMERIS_TYPE":"0","APOAPSIS":"548.421","TLE_LINE1":"1 48436U 21040J   21238.91670139  .00041588  00000-0  27959-2 0  9994","MEAN_ELEMENT_THEORY":"SGP4","SEMIMAJOR_AXIS":"6925.409","LAUNCH_DATE":"2021-05-09"},{"EPHEMERIS_TYPE":"0","APOAPSIS":"553.681","PERIOD":"95.695","CLASSIFICATION_TYPE":"U","TLE_LINE2":"2 48437  53.0542  63.9203 0002138 109.4499  27.5260 15.04774788  3589","RCS_SIZE":"LARGE","REF_FRAME":"TEME","SEMIMAJOR_AXIS":"6930.334","LAUNCH_DATE":"2021-05-09","TLE_LINE1":"1 48437U 21040K   21238.91670139 -.00013424  00000-0 -92375-3 0  9990","MEAN_ELEMENT_THEORY":"SGP4","OBJECT_TYPE":"PAYLOAD","DECAY_DATE":null,"MEAN_MOTION_DOT":"-0.00013424","EPOCH":"2021-08-26T22:00:03.000096","MEAN_MOTION_DDOT":"0.0000000000000","ELEMENT_SET_NO":"999","NORAD_CAT_ID":"48437","ARG_OF_PERICENTER":"109.4499","ECCENTRICITY":"0.00021380","FILE":"3103480","GP_ID":"183498799","MEAN_ANOMALY":"27.5260","SITE":"AFETR","CENTER_NAME":"EARTH","PERIAPSIS":"550.717","MEAN_MOTION":"15.04774788","RA_OF_ASC_NODE":"63.9203","BSTAR":"-0.00092375000000","REV_AT_EPOCH":"358","TIME_SYSTEM":"UTC","OBJECT_ID":"2021-040K","COUNTRY_CODE":"US","INCLINATION":"53.0542","OBJECT_NAME":"STARLINK-2642"},{"MEAN_MOTION":"15.06375330","PERIAPSIS":"546.204","CENTER_NAME":"EARTH","RA_OF_ASC_NODE":"54.6722","TIME_SYSTEM":"UTC","OBJECT_ID":"2021-040L","REV_AT_EPOCH":"358","BSTAR":"0.00272960000000","INCLINATION":"53.0545","OBJECT_NAME":"STARLINK-2640","COUNTRY_CODE":"US","CLASSIFICATION_TYPE":"U","TLE_LINE2":"2 48438  53.0545  54.6722 0001567 103.0278 155.5902 15.06375330  3583","REF_FRAME":"TEME","RCS_SIZE":"LARGE","APOAPSIS":"548.374","EPHEMERIS_TYPE":"0","PERIOD":"95.594","MEAN_ELEMENT_THEORY":"SGP4","TLE_LINE1":"1 48438U 21040L   21238.91670139  .00040584  00000-0  27296-2 0  9995","LAUNCH_DATE":"2021-05-09","SEMIMAJOR_AXIS":"6925.424","MEAN_MOTION_DOT":"0.00040584","EPOCH":"2021-08-26T22:00:03.000096","OBJECT_TYPE":"PAYLOAD","DECAY_DATE":null,"ECCENTRICITY":"0.00015670","ARG_OF_PERICENTER":"103.0278","MEAN_ANOMALY":"155.5902","GP_ID":"183498645","SITE":"AFETR","FILE":"3103480","MEAN_MOTION_DDOT":"0.0000000000000","ELEMENT_SET_NO":"999","NORAD_CAT_ID":"48438"}];
